RADARSAT-2              
1 32382U 07061A   26198.96493442 -.00000127  00000+0 -32405-4 0  9998
2 32382  98.5780 205.4582 0001306  85.0388 275.0943 14.29983362970356
